{
    "links": {
        "self": "http://www.neowsapp.com/rest/v1/neo/3741559?api_key=iIulBulltgU6a56xZRHN4H3l9WmuAYTsLGpBGhQ2"
    },
    "id": "3741559",
    "neo_reference_id": "3741559",
    "name": "(2016 CK29)",
    "designation": "2016 CK29",
    "nasa_jpl_url": "http://ssd.jpl.nasa.gov/sbdb.cgi?sstr=3741559",
    "absolute_magnitude_h": 25.8,
    "estimated_diameter": {
        "kilometers": {
            "estimated_diameter_min": 0.0183888672,
            "estimated_diameter_max": 0.0411187571
        },
        "meters": {
            "estimated_diameter_min": 18.388867207,
            "estimated_diameter_max": 41.1187571041
        },
        "miles": {
            "estimated_diameter_min": 0.0114263088,
            "estimated_diameter_max": 0.0255500032
        },
        "feet": {
            "estimated_diameter_min": 60.3309310875,
            "estimated_diameter_max": 134.9040630575
        }
    },
    "is_potentially_hazardous_asteroid": false,
    "close_approach_data": [
        {
            "close_approach_date": "2016-02-03",
            "close_approach_date_full": "2016-Feb-03 01:45",
            "epoch_date_close_approach": 1454463900000,
            "relative_velocity": {
                "kilometers_per_second": "7.4001941525",
                "kilometers_per_hour": "26640.698949093",
                "miles_per_hour": "16553.4942997851"
            },
            "miss_distance": {
                "astronomical": "0.0396981327",
                "lunar": "15.4425736203",
                "kilometers": "5938756.094897349",
                "miles": "3690171.9218234562"
            },
            "orbiting_body": "Earth"
        }
    ],
    "orbital_data": {
        "orbit_id": "14",
        "orbit_determination_date": "2017-04-06 08:28:43",
        "first_observation_date": "2016-02-04",
        "last_observation_date": "2016-02-28",
        "data_arc_in_days": 24,
        "observations_used": 76,
        "orbit_uncertainty": "7",
        "minimum_orbit_intersection": ".0353731",
        "jupiter_tisserand_invariant": "3.657",
        "epoch_osculation": "2459000.5",
        "eccentricity": ".5033314204010232",
        "semi_major_axis": "2.012923929646043",
        "inclination": "4.494093950293657",
        "ascending_node_longitude": "326.885364001831",
        "orbital_period": "1043.132486767129",
        "perihelion_distance": ".9997560689780909",
        "perihelion_argument": "147.3051981461267",
        "aphelion_distance": "3.026091790313995",
        "perihelion_time": "2459492.082333352457",
        "mean_anomaly": "190.3478779044186",
        "mean_motion": ".3451143594575509",
        "equinox": "J2000",
        "orbit_class": {
            "orbit_class_type": "APO",
            "orbit_class_description": "Near-Earth asteroid orbits which cross the Earth’s orbit similar to that of 1862 Apollo",
            "orbit_class_range": "a (semi-major axis) > 1.0 AU; q (perihelion) < 1.017 AU"
        }
    },
    "is_sentry_object": false
}